{
    "links": {
        "self": "http://www.neowsapp.com/rest/v1/neo/3407482?api_key=iIulBulltgU6a56xZRHN4H3l9WmuAYTsLGpBGhQ2"
    },
    "id": "3407482",
    "neo_reference_id": "3407482",
    "name": "(2008 FE5)",
    "designation": "2008 FE5",
    "nasa_jpl_url": "http://ssd.jpl.nasa.gov/sbdb.cgi?sstr=3407482",
    "absolute_magnitude_h": 22.1,
    "estimated_diameter": {
        "kilometers": {
            "estimated_diameter_min": 0.1010543415,
            "estimated_diameter_max": 0.2259643771
        },
        "meters": {
            "estimated_diameter_min": 101.054341542,
            "estimated_diameter_max": 225.9643771094
        },
        "miles": {
            "estimated_diameter_min": 0.0627922373,
            "estimated_diameter_max": 0.140407711
        },
        "feet": {
            "estimated_diameter_min": 331.5431259047,
            "estimated_diameter_max": 741.3529669956
        }
    },
    "is_potentially_hazardous_asteroid": false,
    "close_approach_data": [
        {
            "close_approach_date": "2007-10-25",
            "close_approach_date_full": "2007-Oct-25 19:56",
            "epoch_date_close_approach": 1193342160000,
            "relative_velocity": {
                "kilometers_per_second": "11.001002004",
                "kilometers_per_hour": "39603.6072144349",
                "miles_per_hour": "24608.1413827693"
            },
            "miss_distance": {
                "astronomical": "0.2396263552",
                "lunar": "93.2146521728",
                "kilometers": "35847592.333783424",
                "miles": "22274660.9864582912"
            },
            "orbiting_body": "Earth"
        },
        {
            "close_approach_date": "2008-03-10",
            "close_approach_date_full": "2008-Mar-10 04:52",
            "epoch_date_close_approach": 1205124720000,
            "relative_velocity": {
                "kilometers_per_second": "11.18245858",
                "kilometers_per_hour": "40256.8508878632",
                "miles_per_hour": "25014.041597517"
            },
            "miss_distance": {
                "astronomical": "0.1868915482",
                "lunar": "72.7008122498",
                "kilometers": "27958577.531722334",
                "miles": "17372654.4975188492"
            },
            "orbiting_body": "Earth"
        }
    ],
    "orbital_data": {
        "orbit_id": "10",
        "orbit_determination_date": "2017-04-06 09:03:54",
        "first_observation_date": "2008-03-28",
        "last_observation_date": "2008-04-09",
        "data_arc_in_days": 12,
        "observations_used": 28,
        "orbit_uncertainty": "8",
        "minimum_orbit_intersection": ".180266",
        "jupiter_tisserand_invariant": "4.596",
        "epoch_osculation": "2454556.5",
        "eccentricity": ".3093822013457612",
        "semi_major_axis": "1.42232349935257",
        "inclination": "19.43157343172492",
        "ascending_node_longitude": "7.246625402427421",
        "orbital_period": "619.5780236748712",
        "perihelion_distance": ".9822819240970658",
        "perihelion_argument": "97.16008547631942",
        "aphelion_distance": "1.862365074608075",
        "perihelion_time": "2454471.295897251094",
        "mean_anomaly": "49.50704482330433",
        "mean_motion": ".5810406215907248",
        "equinox": "J2000",
        "orbit_class": {
            "orbit_class_type": "APO",
            "orbit_class_description": "Near-Earth asteroid orbits which cross the Earth’s orbit similar to that of 1862 Apollo",
            "orbit_class_range": "a (semi-major axis) > 1.0 AU; q (perihelion) < 1.017 AU"
        }
    },
    "is_sentry_object": false
}